{
  "last_updated": "2025-12-29T06:00:02.442899",
  "satellites": {
    "98592": {
      "name": "DUTHSat-2",
      "norad_id": "98592",
      "tle": "1 64530U 25135C   25362.28638375  .00016982  00000-0  74633-3 0  9996\n2 64530  97.4492 114.0637 0006139  71.4126 288.7776 15.21956571 28891",
      "epoch": "2025-12-28T06:52:23.556000",
      "fetched_at": "2025-12-29T06:00:02.537115",
      "source": "satnogs"
    },
    "98530": {
      "name": "LAMARR",
      "norad_id": "98530",
      "tle": "1 66669U 25276D   25362.90352809  .00036162  00000-0  17901-2 0  9997\n2 66669  97.4281  74.3208 0007608 247.9400 112.1026 15.17671648  4572",
      "epoch": "2025-12-28T21:41:04.826976",
      "fetched_at": "2025-12-29T06:00:02.574767",
      "source": "satnogs"
    },
    "98529": {
      "name": "DIRAC",
      "norad_id": "98529",
      "tle": "1 66681U 25276R   25362.37113578  .00022898  00000-0  11376-2 0  9991\n2 66681  97.4328  73.8248 0005036 252.3316 107.7368 15.17656643  4493",
      "epoch": "2025-12-28T08:54:26.131392",
      "fetched_at": "2025-12-29T06:00:02.612831",
      "source": "satnogs"
    },
    "98518": {
      "name": "MICE-1",
      "norad_id": "98518",
      "tle": "1 66684U 25276U   25362.89918865  .00018234  00000-0  91156-3 0  9997\n2 66684  97.4468  74.3943 0004849 215.4035 144.6878 15.17487590  4576",
      "epoch": "2025-12-28T21:34:49.899360",
      "fetched_at": "2025-12-29T06:00:02.649018",
      "source": "satnogs"
    }
  },
  "fetch_log": [
    {
      "norad_id": "98592",
      "name": "DUTHSat-2",
      "status": "success",
      "source": "satnogs",
      "timestamp": "2025-12-29T06:00:02.537118"
    },
    {
      "norad_id": "98530",
      "name": "LAMARR",
      "status": "success",
      "source": "satnogs",
      "timestamp": "2025-12-29T06:00:02.574770"
    },
    {
      "norad_id": "98529",
      "name": "DIRAC",
      "status": "success",
      "source": "satnogs",
      "timestamp": "2025-12-29T06:00:02.612834"
    },
    {
      "norad_id": "98518",
      "name": "MICE-1",
      "status": "success",
      "source": "satnogs",
      "timestamp": "2025-12-29T06:00:02.649022"
    }
  ]
}